OPTICUBE 04             
1 41851U 16067D   24161.02957767  .00004245  00000+0  32169-3 0  9994
2 41851  98.0742 325.6293 0019447  83.7081 276.6357 15.02701509414019
AEROCUBE 8D             
1 41852U 16067E   24161.52392471  .00009267  00000+0  61096-3 0  9995
2 41852  98.1073 330.3586 0006223 127.4041 232.7753 15.07713802414248
AEROCUBE 8C             
1 41853U 16067F   24161.40452156  .00009777  00000+0  64482-3 0  9998
2 41853  98.0883 328.8312 0008810  70.5995 289.6183 15.07667889414214
PROMETHEUS 2-1          
1 41854U 16067G   24161.04768521  .00021841  00000+0  11118-2 0  9998
2 41854  98.0994 335.6733 0013336  88.1871 272.0887 15.16759049414507
PROMETHEUS 2-3          
1 41855U 16067H   24161.43962447  .00021036  00000+0  10721-2 0  9990
2 41855  98.0921 335.5876 0011514  96.4804 263.7739 15.16745862414566
DIDO-2                  
1 42000U 17008BE  24160.74636623  .00272384  00000+0  10316-2 0  9990
2 42000  97.1290 222.2556 0006237 183.7596 176.3630 15.86967711407465
AALTO-1                 
1 42775U 17036L   24160.91923627  .00111659  00000+0  10525-2 0  9991
2 42775  97.1024 190.4527 0005981 194.1110 165.9985 15.66694939387816
URSA MAIOR              
1 42776U 17036M   24160.67323007  .00399891  61511-4  13403-2 0  9994
2 42776  97.0929 194.6002 0008069 193.4307 166.6754 15.90056392388055
CICERO 6                
1 42793U 17036AE  24161.02097935  .01697166  22089-5  10403-2 0  9993
2 42793  97.0292 199.8064 0008943 211.2955 148.7803 16.18046465388542
CORVUS BC2              
1 42846U 17042X   24161.50603021  .00005169  00000+0  44572-3 0  9994
2 42846  97.3729 347.0377 0009244  86.3862 273.8418 14.97670009376299
CORVUS BC1              
1 42847U 17042Y   24161.06709379  .00006253  00000+0  53596-3 0  9990
2 42847  97.3733 347.0236 0009993  87.9623 272.2744 14.97820392376244
MIRATA                  
1 43015U 17073C   24161.17558016  .00021495  00000+0  10199-2 0  9990
2 43015  97.5955  46.0115 0168528 288.4666  69.8309 15.07524482355121
MAKERSAT 0              
1 43016U 17073D   24161.21008623  .00015672  00000+0  89561-3 0  9990
2 43016  97.5813  40.4119 0193958 309.6294  48.7948 14.98178577354713
CORVUS BC3              
1 43118U 18004H   24161.46959875  .01283097  11004-2  13019-2 0  9991
2 43118  97.2766 248.5836 0013388 261.8937  98.0828 16.11002072357720
GOMX-4B                 
1 43196U 18015E   24161.03751552  .00069512  00000+0  76726-3 0  9993
2 43196  97.6060 334.0308 0006191 338.4800  21.6196 15.62834162354259
GOMX-4A                 
1 43197U 18015F   24161.47155462  .00113206  00000+0  76861-3 0  9990
2 43197  97.5958 339.4815 0004861 307.7709  52.3114 15.74602166354662
CICERO 10               
1 43690U 18088A   24161.47607861  .00215517  00000+0  11237-2 0  9996
2 43690  85.0050 184.8811 0002762 194.2346 165.8850 15.80322818310970
SIRION PATHFINDER-2     
1 43759U 18099B   24161.10326530  .00008034  00000+0  60524-3 0  9993
2 43759  97.5288 217.4711 0010416 316.2366  43.8033 15.02702612301293
CORVUS BC4              
1 43767U 18099K   24161.19938855  .00006463  00000+0  49648-3 0  9998
2 43767  97.5144 214.8142 0010818  32.0991 328.0891 15.02030430301196
MOVE-II                 
1 43780U 18099Y   24161.16925070  .00024881  00000+0  13124-2 0  9998
2 43780  97.5217 224.2322 0005924  19.9052 340.2410 15.15528602301719
SPACEBEE-7              
1 43816U 18099BL  24160.92919785  .00019114  00000+0  11316-2 0  9991
2 43816  97.5482 224.7290 0008589 319.3341  40.7247 15.11434487301162
SPACEBEE-6              
1 43818U 18099BN  24161.13583427  .00040391  00000+0  17144-2 0  9993
2 43818  97.5413 230.1443 0006850 313.4923  46.5743 15.22950116301685
SHIELDS 1               
1 43850U 18104B   24160.72855313  .00019738  00000+0  53251-3 0  9997
2 43850  85.0232 288.8493 0012629 103.7073 256.5584 15.37577676304865
SONATE                  
1 44400U 19038Q   24161.24523247  .00023532  00000+0  71597-3 0  9992
2 44400  97.7117 154.9880 0018256 130.1759 230.1085 15.33858267272861
LUCKY-7                 
1 44406U 19038W   24160.94062225  .00048484  00000+0  10700-2 0  9999
2 44406  97.7016 158.6499 0015975 117.0795 243.2084 15.43602190273094
DUCHIFAT-3              
1 44854U 19089C   24161.15769097  .00018840  00000+0  95623-3 0  9998
2 44854  36.9575  97.7618 0005761 358.7236   1.3495 15.16203700246989
M2 PATHFINDER           
1 45727U 20037E   24160.89835656  .00005477  00000+0  47901-3 0  9996
2 45727  97.7756 337.3762 0012351 146.6159 213.5843 14.97100980214702
NETSAT-4                
1 46504U 20068U   24160.81604007  .00015000  00000+0  80317-3 0  9991
2 46504  97.8062 117.7305 0011235  41.7124 318.4962 15.15075165202900
NETSAT-3                
1 46505U 20068V   24160.66523073  .00013933  00000+0  75848-3 0  9994
2 46505  97.8034 117.0934 0010806  50.5247 309.6938 15.14509361202878
NETSAT-1                
1 46506U 20068W   24160.83815176  .00010998  00000+0  62780-3 0  9991
2 46506  97.8052 116.7643 0009629  58.8931 301.3243 15.12881165202864
NETSAT-2                
1 46507U 20068X   24161.42705667  .00013695  00000+0  73577-3 0  9994
2 46507  97.8045 117.9921 0009228  62.9887 297.2285 15.14996208202945
WILDTRACKCUBE-SIMBA     
1 47941U 21022K   24161.54323936  .00015764  00000+0  70514-3 0  9993
2 47941  97.4613  58.3798 0016210 163.9850 196.1901 15.21266325177307
BEESAT-6                
1 47957U 21022AB  24161.22137856  .00302424  00000+0  25935-2 0  9997
2 47957  97.4334  69.1186 0012460 124.1087 236.1358 15.68386404177818
SMOG-1                  
1 47964U 21022AJ  24161.37040952  .00215003  00000+0  21546-2 0  9991
2 47964  97.4618  72.3718 0012512 118.6357 241.6162 15.64757483177015
BCCSAT-1                
1 48041U 21022AK  24160.78798793  .00093499  00000+0  17793-2 0  9997
2 48041  97.4630  67.6559 0011163 119.2231 241.0136 15.47821746176632
BEESAT-5                
1 48083U 21022AM  24160.53507729  .00996530  43137-3  30734-2 0  9993
2 48083  97.3914  70.0482 0011801 141.0383 219.1744 15.91705379177000
BEESAT-7                
1 48084U 21022AN  24160.99054180  .00193915  00000+0  24185-2 0  9999
2 48084  97.4568  68.8422 0012262 127.1054 233.1325 15.59153486176480
BEESAT-8                
1 48085U 21022AP  24160.99318167  .00035871  00000+0  11477-2 0  9994
2 48085  97.4777  62.9883 0013935 145.3157 214.8996 15.32232574176626
LEDSAT                  
1 49069U 21073D   24161.37652569  .00018069  00000+0  73168-3 0  9999
2 49069  97.4374 232.5607 0017817 312.3415  47.6313 15.24588953155265
SITRO-AIS 5 (KATYS)     
1 57176U 23091L   24161.52947038  .00009799  00000+0  63156-3 0  9990
2 57176  97.6124 213.7783 0019058 144.5894 215.6604 15.08375156 52345
SITRO-AIS 6 (CHIRKIN)   
1 57192U 23091AC  24161.51493623  .00009685  00000+0  62341-3 0  9992
2 57192  97.6115 213.7881 0018713 145.0791 215.1669 15.08431267 52343
SITRO-AIS 8 (ANOKHIN)   
1 57193U 23091AD  24161.48444852  .00011120  00000+0  70899-3 0  9993
2 57193  97.6122 213.8205 0018429 145.9158 214.3258 15.08747018 52342
SITRO-AIS 7 (FARTUSHNIY)
1 57194U 23091AE  24161.51972525  .00009348  00000+0  60259-3 0  9999
2 57194  97.6116 213.7756 0018631 145.2953 214.9495 15.08387727 52343
SITRO-AIS 10 (BURDAEV)  
1 57199U 23091AK  24161.53022814  .00011506  00000+0  69943-3 0  9991
2 57199  97.6136 214.7446 0013881 133.8894 226.3484 15.10543635 52403
SITRO-AIS 9 (SHCHUKIN)  
1 57201U 23091AM  24161.52847299  .00010922  00000+0  66450-3 0  9997
2 57201  97.6131 214.7243 0013835 133.8664 226.3711 15.10528499 52405
SITRO-AIS 12 (SMIRENNIY)
1 57204U 23091AQ  24161.49193009  .00012397  00000+0  74967-3 0  9999
2 57204  97.6140 214.8154 0013656 129.1128 231.1317 15.10717412 52405
SITRO-AIS 11 (SHEFFER)  
1 57208U 23091AU  24161.47802643  .00011536  00000+0  69641-3 0  9999
2 57208  97.6140 214.8234 0013646 128.9765 231.2683 15.10799793 52400
SITRO-AIS 29            
1 59052U 24039B   24161.49621792  .00024843  00000+0  91966-3 0  9997
2 59052  97.3921 123.5630 0015614 237.4172 122.5560 15.27541830 15426
SITRO-AIS 30            
1 59053U 24039C   24161.49565277  .00024354  00000+0  90234-3 0  9997
2 59053  97.3918 123.5604 0015709 238.4796 121.4909 15.27515767 15416
SITRO-AIS 31            
1 59054U 24039D   24161.55507783  .00024024  00000+0  88716-3 0  9999
2 59054  97.3919 123.6338 0015595 238.0670 121.9053 15.27629936 15445
SITRO-AIS 33            
1 59055U 24039E   24161.54779344  .00024524  00000+0  90194-3 0  9991
2 59055  97.3922 123.6473 0015286 238.7523 121.2219 15.27764869 15432
SITRO-AIS 35            
1 59056U 24039F   24161.54445449  .00023457  00000+0  86226-3 0  9993
2 59056  97.3920 123.6499 0015092 238.8511 121.1249 15.27794454 15437
SITRO-AIS 32            
1 59057U 24039G   24161.54984977  .00023742  00000+0  87594-3 0  9994
2 59057  97.3922 123.6437 0015126 239.1205 120.8547 15.27669533 15430
SITRO-AIS 34            
1 59058U 24039H   24161.54705431  .00022206  00000+0  81807-3 0  9996
2 59058  97.3922 123.6494 0015276 239.0181 120.9558 15.27729598 15433
SITRO-AIS 36            
1 59059U 24039J   24161.54052702  .00023405  00000+0  85912-3 0  9996
2 59059  97.3919 123.6554 0014832 238.9599 121.0185 15.27845007 15437
SITRO-AIS 49            
1 59060U 24039K   24161.54035659  .00024448  00000+0  89758-3 0  9990
2 59060  97.3920 123.6554 0014924 238.4847 121.4935 15.27828289 15434
SITRO-AIS 50            
1 59061U 24039L   24161.53310776  .00025049  00000+0  91490-3 0  9990
2 59061  97.3918 123.6645 0014846 238.8350 121.1434 15.27995100 15437
SITRO-AIS 51            
1 59062U 24039M   24161.53248498  .00024016  00000+0  87813-3 0  9999
2 59062  97.3919 123.6659 0014839 238.6187 121.3602 15.27967837 15437
SITRO-AIS 52            
1 59063U 24039N   24161.52713313  .00024116  00000+0  87953-3 0  9998
2 59063  97.3921 123.6735 0014672 238.4265 121.5543 15.28053128 15432
